GLOBALSTAR M068         
1 32266U 07048D   24228.06820390 -.00000071  00000+0  18504-3 0  9993
2 32266  51.9879 155.3905 0000620 152.9409 220.1360 12.62796580779177
GLOBALSTAR M079         
1 37188U 10054A   24227.83059931 -.00000082  00000+0  12180-3 0  9997
2 37188  52.0068 352.3858 0000658  82.6976  53.9257 12.62262474637767
GLOBALSTAR M074         
1 37189U 10054B   24227.67135803 -.00000085  00000+0  10551-3 0  9996
2 37189  52.0043 352.2398 0000765 102.9179 269.8270 12.62271166638356
GLOBALSTAR M076         
1 37190U 10054C   24227.80085736 -.00000083  00000+0  11596-3 0  9990
2 37190  52.0054 351.9912 0001017  80.1090  39.9945 12.62255154638082
GLOBALSTAR M077         
1 37191U 10054D   24227.95712095 -.00000071  00000+0  18245-3 0  9997
2 37191  52.0085 308.2845 0000598 117.0789  54.3752 12.62262398638473
GLOBALSTAR M075         
1 37192U 10054E   24227.79042523 -.00000081  00000+0  12696-3 0  9997
2 37192  51.9961  34.4477 0000756  83.6425 289.8902 12.62262772637315
GLOBALSTAR M073         
1 37193U 10054F   24227.47370845 -.00000070  00000+0  18588-3 0  9998
2 37193  52.0073 309.0014 0000629 102.5896 270.3431 12.62268011639105
GLOBALSTAR M083         
1 37739U 11033A   24227.51600184 -.00000083  00000+0  11829-3 0  9994
2 37739  51.9839 258.0209 0000120 146.0415   0.5698 12.62263427608126
GLOBALSTAR M088         
1 37740U 11033B   24227.57400078 -.00000094  00000+0  55337-4 0  9997
2 37740  51.9725 163.5903 0000388  20.5563 150.2276 12.62266121603673
GLOBALSTAR M091         
1 37741U 11033C   24227.50859900 -.00000095  00000+0  48911-4 0  9994
2 37741  51.9993 126.7996 0000433  24.1630 147.5497 12.62265653604450
GLOBALSTAR M085         
1 37742U 11033D   24227.79185904 -.00000091  00000+0  72802-4 0  9994
2 37742  51.9864  77.2442 0000582  59.8770  21.0378 12.62264482605004
GLOBALSTAR M081         
1 37743U 11033E   24227.90235302 -.00000082  00000+0  11998-3 0  9994
2 37743  51.9956  79.5063 0000781  47.6499  55.2043 12.62267957605160
GLOBALSTAR M089         
1 37744U 11033F   24227.76421319 -.00000091  00000+0  68960-4 0  9996
2 37744  51.9944  34.2139 0001135  81.4089 291.8734 12.62267002605992
GLOBALSTAR M084         
1 38040U 11080A   24228.10128101 -.00000064  00000+0  22324-3 0  9993
2 38040  51.9991 260.3141 0000600 111.5454 295.2929 12.62265689584298
GLOBALSTAR M080         
1 38041U 11080B   24227.35471372 -.00000060  00000+0  24210-3 0  9993
2 38041  52.0045 264.0860 0000667  88.3427 284.4607 12.62264040584040
GLOBALSTAR M082         
1 38042U 11080C   24227.92727897 -.00000076  00000+0  15497-3 0  9997
2 38042  52.0051 217.7544 0000376 232.7721 163.1330 12.62265109584820
GLOBALSTAR M092         
1 38043U 11080D   24227.68183618 -.00000074  00000+0  16745-3 0  9993
2 38043  52.0097 308.8640 0000678 120.6448 359.5675 12.62265111583247
GLOBALSTAR M090         
1 38044U 11080E   24227.74616108 -.00000078  00000+0  14313-3 0  9999
2 38044  51.9861 212.5091 0000084 260.5679 271.6579 12.62266103584911
GLOBALSTAR M086         
1 38045U 11080F   24227.90003378 -.00000071  00000+0  18475-3 0  9993
2 38045  51.9873 212.5669 0001004   8.1603  24.3598 12.62265557584884
GLOBALSTAR M097         
1 39072U 13005A   24228.07816142 -.00000099  00000+0  26915-4 0  9992
2 39072  52.0044 126.2639 0000581  30.9733 329.1167 12.62269466532234
GLOBALSTAR M093         
1 39073U 13005B   24226.70499462 -.00000085  00000+0  10527-3 0  9999
2 39073  51.9805 124.2346 0000613  19.7931 340.2959 12.62276936531931
GLOBALSTAR M094         
1 39074U 13005C   24227.73456055 -.00000091  00000+0  72221-4 0  9992
2 39074  51.9970  35.1737 0000647  68.6476 291.4459 12.62266820533679
GLOBALSTAR M096         
1 39075U 13005D   24227.90618425 -.00000094  00000+0  52015-4 0  9995
2 39075  52.0069  82.9281 0000588  44.7049 315.3865 12.62268698532615
GLOBALSTAR M078         
1 39076U 13005E   24227.56301415 -.00000095  00000+0  48231-4 0  9992
2 39076  51.9863 168.8990 0000604 209.9233 150.1599 12.62273735531409
GLOBALSTAR M095         
1 39077U 13005F   24227.90606068 -.00000091  00000+0  70497-4 0  9998
2 39077  51.9789 165.2027 0000359 295.4898  64.5931 12.62263142531097
GLOBALSTAR M087         
1 52888U 22064A   24227.69135394 -.00000060  00000+0  13072-3 0  9994
2 52888  51.9779   4.3787 0009863 149.3885 210.7593 13.37581401105358
